{
  "norad_id": 62814,
  "name": "STARLINK-32843",
  "history": [
    {
      "epoch": "2026-03-28T17:46:39.374400",
      "apogee_km": 475.9889636569742,
      "perigee_km": 474.42626401812595,
      "latitude_deg": -23.096508459504975,
      "longitude_deg": 172.51041599968448,
      "semi_major_axis_km": 6853.344613837549,
      "eccentricity": 0.00011401,
      "inclination_deg": 53.1584,
      "raan_deg": 221.2158,
      "arg_perigee_deg": 82.3262,
      "mean_anomaly_deg": 277.7868,
      "mean_motion_rev_day": 15.30202497
    },
    {
      "epoch": "2026-03-29T01:36:55.959840",
      "apogee_km": 476.2682712349342,
      "perigee_km": 474.15058718830824,
      "latitude_deg": 30.383685508948375,
      "longitude_deg": -156.13782240008004,
      "semi_major_axis_km": 6853.3464292116205,
      "eccentricity": 0.0001545,
      "inclination_deg": 53.1577,
      "raan_deg": 219.6978,
      "arg_perigee_deg": 81.5214,
      "mean_anomaly_deg": 278.5962,
      "mean_motion_rev_day": 15.30201889
    }
  ]
}